[{"OBJECT_NAME":"STARLINK-2537","OBJECT_ID":"2021-036AB","EPOCH":"2022-10-29T01:02:31.665984","MEAN_MOTION":15.06397315,"ECCENTRICITY":0.0001658,"INCLINATION":53.0546,"RA_OF_ASC_NODE":202.7464,"ARG_OF_PERICENTER":89.048,"MEAN_ANOMALY":271.0698,"EPHEMERIS_TYPE":0,"CLASSIFICATION_TYPE":"U","NORAD_CAT_ID":48301,"ELEMENT_SET_NO":999,"REV_AT_EPOCH":8371,"BSTAR":-5.0458e-5,"MEAN_MOTION_DOT":-1.033e-5,"MEAN_MOTION_DDOT":0},{"OBJECT_NAME":"STARLINK-2556","OBJECT_ID":"2021-036AC","EPOCH":"2022-10-29T00:57:13.462560","MEAN_MOTION":15.06402659,"ECCENTRICITY":0.0001423,"INCLINATION":53.0555,"RA_OF_ASC_NODE":202.75,"ARG_OF_PERICENTER":83.5409,"MEAN_ANOMALY":276.5742,"EPHEMERIS_TYPE":0,"CLASSIFICATION_TYPE":"U","NORAD_CAT_ID":48302,"ELEMENT_SET_NO":999,"REV_AT_EPOCH":8371,"BSTAR":3.1222e-5,"MEAN_MOTION_DOT":1.84e-6,"MEAN_MOTION_DDOT":0},{"OBJECT_NAME":"STARLINK-2530","OBJECT_ID":"2021-036AD","EPOCH":"2022-10-28T18:28:23.498688","MEAN_MOTION":15.0640519,"ECCENTRICITY":0.0001576,"INCLINATION":53.0551,"RA_OF_ASC_NODE":203.9621,"ARG_OF_PERICENTER":70.6533,"MEAN_ANOMALY":289.4627,"EPHEMERIS_TYPE":0,"CLASSIFICATION_TYPE":"U","NORAD_CAT_ID":48303,"ELEMENT_SET_NO":999,"REV_AT_EPOCH":8309,"BSTAR":6.8038e-5,"MEAN_MOTION_DOT":7.32e-6,"MEAN_MOTION_DDOT":0},{"OBJECT_NAME":"STARLINK-2524","OBJECT_ID":"2021-036AE","EPOCH":"2022-10-29T00:46:36.003360","MEAN_MOTION":15.06407147,"ECCENTRICITY":0.0001482,"INCLINATION":53.0534,"RA_OF_ASC_NODE":202.7845,"ARG_OF_PERICENTER":80.4793,"MEAN_ANOMALY":279.6364,"EPHEMERIS_TYPE":0,"CLASSIFICATION_TYPE":"U","NORAD_CAT_ID":48304,"ELEMENT_SET_NO":999,"REV_AT_EPOCH":8372,"BSTAR":-3.3437e-5,"MEAN_MOTION_DOT":-7.8e-6,"MEAN_MOTION_DDOT":0},{"OBJECT_NAME":"STARLINK-2519","OBJECT_ID":"2021-036AF","EPOCH":"2022-10-29T00:39:56.152800","MEAN_MOTION":15.064009,"ECCENTRICITY":0.0001308,"INCLINATION":53.0523,"RA_OF_ASC_NODE":202.8085,"ARG_OF_PERICENTER":72.5115,"MEAN_ANOMALY":287.6017,"EPHEMERIS_TYPE":0,"CLASSIFICATION_TYPE":"U","NORAD_CAT_ID":48305,"ELEMENT_SET_NO":999,"REV_AT_EPOCH":8372,"BSTAR":-3.732e-5,"MEAN_MOTION_DOT":-8.37e-6,"MEAN_MOTION_DDOT":0},{"OBJECT_NAME":"STARLINK-2523","OBJECT_ID":"2021-036AG","EPOCH":"2022-10-28T10:16:07.922208","MEAN_MOTION":15.06410403,"ECCENTRICITY":0.0001416,"INCLINATION":53.0551,"RA_OF_ASC_NODE":205.5053,"ARG_OF_PERICENTER":75.6353,"MEAN_ANOMALY":284.4793,"EPHEMERIS_TYPE":0,"CLASSIFICATION_TYPE":"U","NORAD_CAT_ID":48306,"ELEMENT_SET_NO":999,"REV_AT_EPOCH":8304,"BSTAR":4.8207e-5,"MEAN_MOTION_DOT":4.37e-6,"MEAN_MOTION_DDOT":0},{"OBJECT_NAME":"STARLINK-2528","OBJECT_ID":"2021-036AH","EPOCH":"2022-10-29T03:41:45.462624","MEAN_MOTION":15.06405761,"ECCENTRICITY":0.0001416,"INCLINATION":53.0541,"RA_OF_ASC_NODE":202.2491,"ARG_OF_PERICENTER":84.0191,"MEAN_ANOMALY":276.0959,"EPHEMERIS_TYPE":0,"CLASSIFICATION_TYPE":"U","NORAD_CAT_ID":48307,"ELEMENT_SET_NO":999,"REV_AT_EPOCH":8374,"BSTAR":9.2737e-5,"MEAN_MOTION_DOT":1.1e-5,"MEAN_MOTION_DDOT":0},{"OBJECT_NAME":"STARLINK-2532","OBJECT_ID":"2021-036AJ","EPOCH":"2022-10-28T18:03:12.854304","MEAN_MOTION":15.06405248,"ECCENTRICITY":0.0001666,"INCLINATION":53.0542,"RA_OF_ASC_NODE":204.0478,"ARG_OF_PERICENTER":45.9893,"MEAN_ANOMALY":314.1233,"EPHEMERIS_TYPE":0,"CLASSIFICATION_TYPE":"U","NORAD_CAT_ID":48308,"ELEMENT_SET_NO":999,"REV_AT_EPOCH":8309,"BSTAR":0.00013823,"MEAN_MOTION_DOT":1.778e-5,"MEAN_MOTION_DDOT":0},{"OBJECT_NAME":"STARLINK-2517","OBJECT_ID":"2021-036AK","EPOCH":"2022-10-28T00:26:59.034048","MEAN_MOTION":15.06409217,"ECCENTRICITY":0.0001634,"INCLINATION":53.0531,"RA_OF_ASC_NODE":207.3481,"ARG_OF_PERICENTER":87.2985,"MEAN_ANOMALY":272.8191,"EPHEMERIS_TYPE":0,"CLASSIFICATION_TYPE":"U","NORAD_CAT_ID":48309,"ELEMENT_SET_NO":999,"REV_AT_EPOCH":8298,"BSTAR":0.00016995,"MEAN_MOTION_DOT":2.251e-5,"MEAN_MOTION_DDOT":0},{"OBJECT_NAME":"STARLINK-2536","OBJECT_ID":"2021-036AL","EPOCH":"2022-10-29T00:14:46.190112","MEAN_MOTION":15.06408091,"ECCENTRICITY":0.0001472,"INCLINATION":53.0543,"RA_OF_ASC_NODE":202.8986,"ARG_OF_PERICENTER":64.9214,"MEAN_ANOMALY":295.1927,"EPHEMERIS_TYPE":0,"CLASSIFICATION_TYPE":"U","NORAD_CAT_ID":48310,"ELEMENT_SET_NO":999,"REV_AT_EPOCH":8372,"BSTAR":0.00015883,"MEAN_MOTION_DOT":2.086e-5,"MEAN_MOTION_DDOT":0},{"OBJECT_NAME":"STARLINK-2534","OBJECT_ID":"2021-036AM","EPOCH":"2022-10-29T03:20:31.661376","MEAN_MOTION":15.06402821,"ECCENTRICITY":0.0001536,"INCLINATION":53.0555,"RA_OF_ASC_NODE":202.3028,"ARG_OF_PERICENTER":91.952,"MEAN_ANOMALY":268.1645,"EPHEMERIS_TYPE":0,"CLASSIFICATION_TYPE":"U","NORAD_CAT_ID":48311,"ELEMENT_SET_NO":999,"REV_AT_EPOCH":8379,"BSTAR":7.5237e-5,"MEAN_MOTION_DOT":8.39e-6,"MEAN_MOTION_DDOT":0},{"OBJECT_NAME":"STARLINK-2061","OBJECT_ID":"2021-036AN","EPOCH":"2022-10-29T03:15:13.269600","MEAN_MOTION":15.06402684,"ECCENTRICITY":0.0001726,"INCLINATION":53.0529,"RA_OF_ASC_NODE":202.3334,"ARG_OF_PERICENTER":62.3587,"MEAN_ANOMALY":297.7577,"EPHEMERIS_TYPE":0,"CLASSIFICATION_TYPE":"U","NORAD_CAT_ID":48312,"ELEMENT_SET_NO":999,"REV_AT_EPOCH":8379,"BSTAR":3.4186e-6,"MEAN_MOTION_DOT":-2.31e-6,"MEAN_MOTION_DDOT":0},{"OBJECT_NAME":"STARLINK-2541","OBJECT_ID":"2021-036AP","EPOCH":"2022-10-28T23:58:50.328768","MEAN_MOTION":15.0641018,"ECCENTRICITY":0.0001447,"INCLINATION":53.0548,"RA_OF_ASC_NODE":202.9433,"ARG_OF_PERICENTER":77.2042,"MEAN_ANOMALY":282.9108,"EPHEMERIS_TYPE":0,"CLASSIFICATION_TYPE":"U","NORAD_CAT_ID":48313,"ELEMENT_SET_NO":999,"REV_AT_EPOCH":8377,"BSTAR":-5.2678e-7,"MEAN_MOTION_DOT":-2.89e-6,"MEAN_MOTION_DDOT":0},{"OBJECT_NAME":"STARLINK-2549","OBJECT_ID":"2021-036AQ","EPOCH":"2022-10-29T03:04:36.588000","MEAN_MOTION":15.06400901,"ECCENTRICITY":0.0001777,"INCLINATION":53.0538,"RA_OF_ASC_NODE":202.3654,"ARG_OF_PERICENTER":107.5295,"MEAN_ANOMALY":252.5888,"EPHEMERIS_TYPE":0,"CLASSIFICATION_TYPE":"U","NORAD_CAT_ID":48314,"ELEMENT_SET_NO":999,"REV_AT_EPOCH":8379,"BSTAR":4.3972e-5,"MEAN_MOTION_DOT":3.73e-6,"MEAN_MOTION_DDOT":0},{"OBJECT_NAME":"STARLINK-2506","OBJECT_ID":"2021-036AR","EPOCH":"2022-10-29T02:57:57.004416","MEAN_MOTION":15.06398878,"ECCENTRICITY":0.0001663,"INCLINATION":53.0544,"RA_OF_ASC_NODE":202.3605,"ARG_OF_PERICENTER":78.5576,"MEAN_ANOMALY":281.56,"EPHEMERIS_TYPE":0,"CLASSIFICATION_TYPE":"U","NORAD_CAT_ID":48315,"ELEMENT_SET_NO":999,"REV_AT_EPOCH":8379,"BSTAR":0.00033601,"MEAN_MOTION_DOT":4.727e-5,"MEAN_MOTION_DDOT":0},{"OBJECT_NAME":"STARLINK-2507","OBJECT_ID":"2021-036AS","EPOCH":"2022-10-28T17:20:46.055328","MEAN_MOTION":15.0639409,"ECCENTRICITY":0.0001752,"INCLINATION":53.0539,"RA_OF_ASC_NODE":204.1726,"ARG_OF_PERICENTER":80.2297,"MEAN_ANOMALY":279.8889,"EPHEMERIS_TYPE":0,"CLASSIFICATION_TYPE":"U","NORAD_CAT_ID":48316,"ELEMENT_SET_NO":999,"REV_AT_EPOCH":8308,"BSTAR":-0.00033696,"MEAN_MOTION_DOT":-5.296e-5,"MEAN_MOTION_DDOT":0},{"OBJECT_NAME":"STARLINK-2513","OBJECT_ID":"2021-036AT","EPOCH":"2022-10-29T02:48:41.152608","MEAN_MOTION":15.06412772,"ECCENTRICITY":0.0001386,"INCLINATION":53.054,"RA_OF_ASC_NODE":202.3987,"ARG_OF_PERICENTER":82.7933,"MEAN_ANOMALY":277.3214,"EPHEMERIS_TYPE":0,"CLASSIFICATION_TYPE":"U","NORAD_CAT_ID":48317,"ELEMENT_SET_NO":999,"REV_AT_EPOCH":8379,"BSTAR":0.00023847,"MEAN_MOTION_DOT":3.273e-5,"MEAN_MOTION_DDOT":0}]
