STARLINK-2537           
1 48301U 21036AB  22302.04342206 -.00001033  00000+0 -50458-4 0  9992
2 48301  53.0546 202.7464 0001658  89.0480 271.0698 15.06397315 83717
STARLINK-2556           
1 48302U 21036AC  22302.03973915  .00000184  00000+0  31222-4 0  9991
2 48302  53.0555 202.7500 0001423  83.5409 276.5742 15.06402659 83717
STARLINK-2530           
1 48303U 21036AD  22301.76971642  .00000732  00000+0  68038-4 0  9990
2 48303  53.0551 203.9621 0001576  70.6533 289.4627 15.06405190 83094
STARLINK-2524           
1 48304U 21036AE  22302.03236115 -.00000780  00000+0 -33437-4 0  9991
2 48304  53.0534 202.7845 0001482  80.4793 279.6364 15.06407147 83727
STARLINK-2519           
1 48305U 21036AF  22302.02773325 -.00000837  00000+0 -37320-4 0  9998
2 48305  53.0523 202.8085 0001308  72.5115 287.6017 15.06400900 83724
STARLINK-2523           
1 48306U 21036AG  22301.42786947  .00000437  00000+0  48207-4 0  9996
2 48306  53.0551 205.5053 0001416  75.6353 284.4793 15.06410403 83049
STARLINK-2528           
1 48307U 21036AH  22302.15399841  .00001100  00000+0  92737-4 0  9996
2 48307  53.0541 202.2491 0001416  84.0191 276.0959 15.06405761 83742
STARLINK-2532           
1 48308U 21036AJ  22301.75223211  .00001778  00000+0  13823-3 0  9998
2 48308  53.0542 204.0478 0001666  45.9893 314.1233 15.06405248 83098
STARLINK-2517           
1 48309U 21036AK  22301.01873882  .00002251  00000+0  16995-3 0  9993
2 48309  53.0531 207.3481 0001634  87.2985 272.8191 15.06409217 82983
STARLINK-2536           
1 48310U 21036AL  22302.01025683  .00002086  00000+0  15883-3 0  9995
2 48310  53.0543 202.8986 0001472  64.9214 295.1927 15.06408091 83722
STARLINK-2534           
1 48311U 21036AM  22302.13925534  .00000839  00000+0  75237-4 0  9997
2 48311  53.0555 202.3028 0001536  91.9520 268.1645 15.06402821 83798
STARLINK-2061           
1 48312U 21036AN  22302.13557025 -.00000231  00000+0  34186-5 0  9990
2 48312  53.0529 202.3334 0001726  62.3587 297.7577 15.06402684 83795
STARLINK-2541           
1 48313U 21036AP  22301.99919362 -.00000289  00000+0 -52678-6 0  9991
2 48313  53.0548 202.9433 0001447  77.2042 282.9108 15.06410180 83778
STARLINK-2549           
1 48314U 21036AQ  22302.12820125  .00000373  00000+0  43972-4 0  9993
2 48314  53.0538 202.3654 0001777 107.5295 252.5888 15.06400901 83790
STARLINK-2506           
1 48315U 21036AR  22302.12357644  .00004727  00000+0  33601-3 0  9999
2 48315  53.0544 202.3605 0001663  78.5576 281.5600 15.06398878 83790
STARLINK-2507           
1 48316U 21036AS  22301.72275527 -.00005296  00000+0 -33696-3 0  9992
2 48316  53.0539 204.1726 0001752  80.2297 279.8889 15.06394090 83081
STARLINK-2513           
1 48317U 21036AT  22302.11714297  .00003273  00000+0  23847-3 0  9997
2 48317  53.0540 202.3987 0001386  82.7933 277.3214 15.06412772 83791
